{"type": "FeatureCollection", "features": [ {"type": "Feature", "properties": {"norad_id": 41335, "name": "SENTINEL-3A", "group": "resource", "lat": 59.915031286460994, "lon": 38.57006742331522, "alt_km": 796.2376761656042, "timestamp": "2025-12-14T18:52:55.155517+00:00", "meta": {"OBJECT_NAME": "SENTINEL-3A", "OBJECT_ID": "2016-011A", "EPOCH": "2025-12-13T22:23:57.571872", "MEAN_MOTION": 14.26731319, "ECCENTRICITY": 9.412e-05, "INCLINATION": 98.6314, "RA_OF_ASC_NODE": 52.9285, "ARG_OF_PERICENTER": 91.2455, "MEAN_ANOMALY": 268.8833, "EPHEMERIS_TYPE": 0, "CLASSIFICATION_TYPE": "U", "NORAD_CAT_ID": 41335, "ELEMENT_SET_NO": 999, "REV_AT_EPOCH": 51164, "BSTAR": 0.00011470161, "MEAN_MOTION_DOT": 2.34e-06, "MEAN_MOTION_DDOT": 0}, "tle": {"line1": "1 41335U 16011A   25347.93330523  .00000234  00000+0  11470-3 0  9998", "line2": "2 41335  98.6314  52.9285 0000941  91.2455 268.8833 14.26731319511642"}}, "geometry": {"type": "Point", "coordinates": [38.57006742331522, 59.915031286460994]}}, {"type": "Feature", "properties": {"norad_id": 41556, "name": "ZIYUAN 3-2 (ZY 3-2)", "group": "resource", "lat": 29.654662057284646, "lon": -112.83338768423756, "alt_km": 500.0258191646335, "timestamp": "2025-12-14T18:52:55.155528+00:00", "meta": {"OBJECT_NAME": "ZIYUAN 3-2 (ZY 3-2)", "OBJECT_ID": "2016-033A", "EPOCH": "2025-12-13T23:17:00.368160", "MEAN_MOTION": 15.215274, "ECCENTRICITY": 0.00125951, "INCLINATION": 97.4044, "RA_OF_ASC_NODE": 62.1172, "ARG_OF_PERICENTER": 244.4038, "MEAN_ANOMALY": 115.5896, "EPHEMERIS_TYPE": 0, "CLASSIFICATION_TYPE": "U", "NORAD_CAT_ID": 41556, "ELEMENT_SET_NO": 999, "REV_AT_EPOCH": 52982, "BSTAR": 0.00039595446, "MEAN_MOTION_DOT": 8.869e-05, "MEAN_MOTION_DDOT": 0}, "tle": {"line1": "1 41556U 16033A   25347.97014315  .00008869  00000+0  39595-3 0  9999", "line2": "2 41556  97.4044  62.1172 0012595 244.4038 115.5896 15.21527400529825"}}, "geometry": {"type": "Point", "coordinates": [-112.83338768423756, 29.654662057284646]}}, {"type": "Feature", "properties": {"norad_id": 41599, "name": "CARTOSAT-2C", "group": "resource", "lat": 75.69795365227179, "lon": 15.008539147943104, "alt_km": 493.76883643540896, "timestamp": "2025-12-14T18:52:55.155538+00:00", "meta": {"OBJECT_NAME": "CARTOSAT-2C", "OBJECT_ID": "2016-040A", "EPOCH": "2025-12-13T23:34:25.001184", "MEAN_MOTION": 15.19312198, "ECCENTRICITY": 0.00107369, "INCLINATION": 97.4767, "RA_OF_ASC_NODE": 45.2198, "ARG_OF_PERICENTER": 60.8197, "MEAN_ANOMALY": 299.411, "EPHEMERIS_TYPE": 0, "CLASSIFICATION_TYPE": "U", "NORAD_CAT_ID": 41599, "ELEMENT_SET_NO": 999, "REV_AT_EPOCH": 52559, "BSTAR": 0.00029205182, "MEAN_MOTION_DOT": 6.107e-05, "MEAN_MOTION_DDOT": 0}, "tle": {"line1": "1 41599U 16040A   25347.98223381  .00006107  00000+0  29205-3 0  9990", "line2": "2 41599  97.4767  45.2198 0010736  60.8197 299.4110 15.19312198525599"}}, "geometry": {"type": "Point", "coordinates": [15.008539147943104, 75.69795365227179]}}, {"type": "Feature", "properties": {"norad_id": 41601, "name": "SKYSAT-C1", "group": "resource", "lat": -50.30957611236206, "lon": -162.80746149304943, "alt_km": 476.08417860548343, "timestamp": "2025-12-14T18:52:55.155548+00:00", "meta": {"OBJECT_NAME": "SKYSAT-C1", "OBJECT_ID": "2016-040C", "EPOCH": "2025-12-13T15:14:23.179200", "MEAN_MOTION": 15.32613169, "ECCENTRICITY": 0.00022761, "INCLINATION": 96.9828, "RA_OF_ASC_NODE": 24.5981, "ARG_OF_PERICENTER": 13.2546, "MEAN_ANOMALY": 346.8756, "EPHEMERIS_TYPE": 0, "CLASSIFICATION_TYPE": "U", "NORAD_CAT_ID": 41601, "ELEMENT_SET_NO": 999, "REV_AT_EPOCH": 52941, "BSTAR": 0.00035697669, "MEAN_MOTION_DOT": 0.00011175, "MEAN_MOTION_DDOT": 0}, "tle": {"line1": "1 41601U 16040C   25347.63499050  .00011175  00000+0  35698-3 0  9998", "line2": "2 41601  96.9828  24.5981 0002276  13.2546 346.8756 15.32613169529410"}}, "geometry": {"type": "Point", "coordinates": [-162.80746149304943, -50.30957611236206]}}, {"type": "Feature", "properties": {"norad_id": 41603, "name": "LAPAN-A3", "group": "resource", "lat": 6.690607729845708, "lon": -14.574085825837818, "alt_km": 468.3829000156966, "timestamp": "2025-12-14T18:52:55.155559+00:00", "meta": {"OBJECT_NAME": "LAPAN-A3", "OBJECT_ID": "2016-040E", "EPOCH": "2025-12-14T00:02:10.457952", "MEAN_MOTION": 15.31565883, "ECCENTRICITY": 0.00094855, "INCLINATION": 97.143, "RA_OF_ASC_NODE": 345.512, "ARG_OF_PERICENTER": 328.9933, "MEAN_ANOMALY": 31.0748, "EPHEMERIS_TYPE": 0, "CLASSIFICATION_TYPE": "U", "NORAD_CAT_ID": 41603, "ELEMENT_SET_NO": 999, "REV_AT_EPOCH": 52645, "BSTAR": 0.00017629531, "MEAN_MOTION_DOT": 5.306e-05, "MEAN_MOTION_DDOT": 0}, "tle": {"line1": "1 41603U 16040E   25348.00150993  .00005306  00000+0  17630-3 0  9997", "line2": "2 41603  97.1430 345.5120 0009485 328.9933  31.0748 15.31565883526453"}}, "geometry": {"type": "Point", "coordinates": [-14.574085825837818, 6.690607729845708]}}, {"type": "Feature", "properties": {"norad_id": 41604, "name": "BIROS", "group": "resource", "lat": -78.75605519513985, "lon": 161.6826107630148, "alt_km": 309.0546580572636, "timestamp": "2025-12-14T18:52:55.155569+00:00", "meta": {"OBJECT_NAME": "BIROS", "OBJECT_ID": "2016-040F", "EPOCH": "2025-12-13T14:36:18.084960", "MEAN_MOTION": 15.90136506, "ECCENTRICITY": 0.00035025, "INCLINATION": 97.0682, "RA_OF_ASC_NODE": 19.0764, "ARG_OF_PERICENTER": 146.2595, "MEAN_ANOMALY": 213.8902, "EPHEMERIS_TYPE": 0, "CLASSIFICATION_TYPE": "U", "NORAD_CAT_ID": 41604, "ELEMENT_SET_NO": 999, "REV_AT_EPOCH": 52886, "BSTAR": 0.00066760898, "MEAN_MOTION_DOT": 0.00199314, "MEAN_MOTION_DDOT": 1.6332253e-05}, "tle": {"line1": "1 41604U 16040F   25347.60854265  .00199314  16332-4  66761-3 0  9998", "line2": "2 41604  97.0682  19.0764 0003502 146.2595 213.8902 15.90136506528868"}}, "geometry": {"type": "Point", "coordinates": [161.6826107630148, -78.75605519513985]}}, {"type": "Feature", "properties": {"norad_id": 41727, "name": "GAOFEN-3", "group": "resource", "lat": -26.609337391703438, "lon": 170.09454151067396, "alt_km": 757.7269958567467, "timestamp": "2025-12-14T18:52:55.155579+00:00", "meta": {"OBJECT_NAME": "GAOFEN-3", "OBJECT_ID": "2016-049A", "EPOCH": "2025-12-13T23:36:37.033344", "MEAN_MOTION": 14.42214363, "ECCENTRICITY": 0.00013931, "INCLINATION": 98.4044, "RA_OF_ASC_NODE": 353.5512, "ARG_OF_PERICENTER": 60.4782, "MEAN_ANOMALY": 299.6546, "EPHEMERIS_TYPE": 0, "CLASSIFICATION_TYPE": "U", "NORAD_CAT_ID": 41727, "ELEMENT_SET_NO": 999, "REV_AT_EPOCH": 49195, "BSTAR": 7.5996679e-05, "MEAN_MOTION_DOT": 2.07e-06, "MEAN_MOTION_DDOT": 0}, "tle": {"line1": "1 41727U 16049A   25347.98376196  .00000207  00000+0  75997-4 0  9990", "line2": "2 41727  98.4044 353.5512 0001393  60.4782 299.6546 14.42214363491958"}}, "geometry": {"type": "Point", "coordinates": [170.09454151067396, -26.609337391703438]}}, {"type": "Feature", "properties": {"norad_id": 41771, "name": "SKYSAT-C4", "group": "resource", "lat": -56.574782013147605, "lon": -176.75693163101778, "alt_km": 446.69926670298173, "timestamp": "2025-12-14T18:52:55.155589+00:00", "meta": {"OBJECT_NAME": "SKYSAT-C4", "OBJECT_ID": "2016-058B", "EPOCH": "2025-12-13T23:10:16.695264", "MEAN_MOTION": 15.42295302, "ECCENTRICITY": 0.00016339, "INCLINATION": 96.9381, "RA_OF_ASC_NODE": 13.0937, "ARG_OF_PERICENTER": 133.9284, "MEAN_ANOMALY": 226.2099, "EPHEMERIS_TYPE": 0, "CLASSIFICATION_TYPE": "U", "NORAD_CAT_ID": 41771, "ELEMENT_SET_NO": 999, "REV_AT_EPOCH": 51686, "BSTAR": 0.00038840222, "MEAN_MOTION_DOT": 0.00016654, "MEAN_MOTION_DDOT": 0}, "tle": {"line1": "1 41771U 16058B   25347.96547101  .00016654  00000+0  38840-3 0  9991", "line2": "2 41771  96.9381  13.0937 0001633 133.9284 226.2099 15.42295302516863"}}, "geometry": {"type": "Point", "coordinates": [-176.75693163101778, -56.574782013147605]}}, {"type": "Feature", "properties": {"norad_id": 41772, "name": "SKYSAT-C5", "group": "resource", "lat": 81.70214906241375, "lon": -89.14064271837451, "alt_km": 454.2658813095795, "timestamp": "2025-12-14T18:52:55.155618+00:00", "meta": {"OBJECT_NAME": "SKYSAT-C5", "OBJECT_ID": "2016-058C", "EPOCH": "2025-12-13T20:33:58.290624", "MEAN_MOTION": 15.34797926, "ECCENTRICITY": 0.00011373, "INCLINATION": 97.0765, "RA_OF_ASC_NODE": 31.5619, "ARG_OF_PERICENTER": 205.5411, "MEAN_ANOMALY": 154.5777, "EPHEMERIS_TYPE": 0, "CLASSIFICATION_TYPE": "U", "NORAD_CAT_ID": 41772, "ELEMENT_SET_NO": 999, "REV_AT_EPOCH": 51533, "BSTAR": 0.00035295066, "MEAN_MOTION_DOT": 0.00011837, "MEAN_MOTION_DDOT": 0}, "tle": {"line1": "1 41772U 16058C   25347.85692466  .00011837  00000+0  35295-3 0  9994", "line2": "2 41772  97.0765  31.5619 0001137 205.5411 154.5777 15.34797926515338"}}, "geometry": {"type": "Point", "coordinates": [-89.14064271837451, 81.70214906241375]}}, {"type": "Feature", "properties": {"norad_id": 41773, "name": "SKYSAT-C2", "group": "resource", "lat": 54.09783983232533, "lon": -156.94845123290088, "alt_km": 449.2911940771264, "timestamp": "2025-12-14T18:52:55.155630+00:00", "meta": {"OBJECT_NAME": "SKYSAT-C2", "OBJECT_ID": "2016-058D", "EPOCH": "2025-12-13T23:35:35.643552", "MEAN_MOTION": 15.37308378, "ECCENTRICITY": 0.00041218, "INCLINATION": 97.0369, "RA_OF_ASC_NODE": 12.4572, "ARG_OF_PERICENTER": 31.4865, "MEAN_ANOMALY": 328.6627, "EPHEMERIS_TYPE": 0, "CLASSIFICATION_TYPE": "U", "NORAD_CAT_ID": 41773, "ELEMENT_SET_NO": 999, "REV_AT_EPOCH": 51655, "BSTAR": 0.00035711512, "MEAN_MOTION_DOT": 0.00012988, "MEAN_MOTION_DDOT": 0}, "tle": {"line1": "1 41773U 16058D   25347.98305143  .00012988  00000+0  35712-3 0  9994", "line2": "2 41773  97.0369  12.4572 0004121  31.4865 328.6627 15.37308378516555"}}, "geometry": {"type": "Point", "coordinates": [-156.94845123290088, 54.09783983232533]}}]}